<?xml version="1.0" encoding="UTF-8"?>
<kml xmlns="http://www.opengis.net/kml/2.2" xmlns:gx="http://www.google.com/kml/ext/2.2" xmlns:kml="http://www.opengis.net/kml/2.2" xmlns:atom="http://www.w3.org/2005/Atom">
<Document>
	<name>BLOQUE LA HUACA</name>
	<Schema name="S_BLOQUE_LA_HUACA" id="S_BLOQUE_LA_HUACA">
		<SimpleField type="double" name="AREA_HA"><displayName>&lt;b&gt;AREA_HA&lt;/b&gt;</displayName></SimpleField>
		<SimpleField type="string" name="NOM_LOC"><displayName>&lt;b&gt;NOM_LOC&lt;/b&gt;</displayName></SimpleField>
		<SimpleField type="string" name="NOM_PRE"><displayName>&lt;b&gt;NOM_PRE&lt;/b&gt;</displayName></SimpleField>
		<SimpleField type="string" name="NOM_BLO"><displayName>&lt;b&gt;NOM_BLO&lt;/b&gt;</displayName></SimpleField>
		<SimpleField type="string" name="CODCAT"><displayName>&lt;b&gt;CODCAT&lt;/b&gt;</displayName></SimpleField>
		<SimpleField type="string" name="USUARIO"><displayName>&lt;b&gt;USUARIO&lt;/b&gt;</displayName></SimpleField>
		<SimpleField type="string" name="AP_PAT_USU"><displayName>&lt;b&gt;AP_PAT_USU&lt;/b&gt;</displayName></SimpleField>
		<SimpleField type="string" name="AP_MAT_USU"><displayName>&lt;b&gt;AP_MAT_USU&lt;/b&gt;</displayName></SimpleField>
		<SimpleField type="string" name="NOM_USU"><displayName>&lt;b&gt;NOM_USU&lt;/b&gt;</displayName></SimpleField>
		<SimpleField type="string" name="TIPODOC"><displayName>&lt;b&gt;TIPODOC&lt;/b&gt;</displayName></SimpleField>
		<SimpleField type="string" name="NUM_DOC"><displayName>&lt;b&gt;NUM_DOC&lt;/b&gt;</displayName></SimpleField>
		<SimpleField type="string" name="DESC_LIC"><displayName>&lt;b&gt;DESC_LIC&lt;/b&gt;</displayName></SimpleField>
		<SimpleField type="double" name="PAR_AR_BR"><displayName>&lt;b&gt;PAR_AR_BR&lt;/b&gt;</displayName></SimpleField>
		<SimpleField type="string" name="RES_ADM"><displayName>&lt;b&gt;RES_ADM&lt;/b&gt;</displayName></SimpleField>
		<SimpleField type="string" name="TOMA"><displayName>&lt;b&gt;TOMA&lt;/b&gt;</displayName></SimpleField>
	</Schema>
	<Folder>
		<name>LA HUACA</name>
		<Placemark>
			<name>067029</name>
			<visibility>0</visibility>
			<ExtendedData>
				<SchemaData schemaUrl="#S_BLOQUE_LA_HUACA">
					<SimpleData name="AREA_HA">638.388</SimpleData>
					<SimpleData name="NOM_LOC"></SimpleData>
					<SimpleData name="NOM_PRE">LOTE 2B-4</SimpleData>
					<SimpleData name="NOM_BLO">LA HUACA</SimpleData>
					<SimpleData name="CODCAT">067029</SimpleData>
					<SimpleData name="USUARIO">AGRICOLA DEL CHIRA S.A.</SimpleData>
					<SimpleData name="AP_PAT_USU"></SimpleData>
					<SimpleData name="AP_MAT_USU"></SimpleData>
					<SimpleData name="NOM_USU"></SimpleData>
					<SimpleData name="TIPODOC">RUC</SimpleData>
					<SimpleData name="NUM_DOC">20525413447</SimpleData>
					<SimpleData name="DESC_LIC">ANA-ALA CHIRA</SimpleData>
					<SimpleData name="PAR_AR_BR">638.388</SimpleData>
					<SimpleData name="RES_ADM">090-2009-ANA-ALA CHIRA</SimpleData>
					<SimpleData name="TOMA">SI6</SimpleData>
				</SchemaData>
			</ExtendedData>
			<Polygon>
				<outerBoundaryIs>
					<LinearRing>
						<coordinates>
							-80.97305525663353,-4.935355349850681,0 -80.96759791482278,-4.941886840511323,0 -80.96274292734219,-4.939684926789547,0 -80.95717992137259,-4.938358111291277,0 -80.94981989132843,-4.934015227248012,0 -80.94748374280766,-4.933517505054972,0 -80.93998845439117,-4.930178747060497,0 -80.93681211756146,-4.926912483026995,0 -80.93882367605549,-4.927179662480057,0 -80.94206794997626,-4.916426929317989,0 -80.94211830405263,-4.916400884373249,0 -80.94312416612598,-4.916241143659472,0 -80.94314271783163,-4.916771894331125,0 -80.94321358885142,-4.91687962361328,0 -80.94337392058657,-4.917147995743258,0 -80.94346978045795,-4.917272278975844,0 -80.94405380367719,-4.917856529000684,0 -80.94423712444255,-4.918041419170778,0 -80.9445142239544,-4.918338472171875,0 -80.94461692780109,-4.918449007667411,0 -80.94464005706334,-4.918468184448415,0 -80.94475139315617,-4.918518120397071,0 -80.94502255447847,-4.918665933440756,0 -80.94505446052013,-4.918679050863403,0 -80.94526292100176,-4.91885969162735,0 -80.94564667844432,-4.919120482653145,0 -80.94591174093966,-4.919274716685331,0 -80.94595063829458,-4.919288196386327,0 -80.94619941500919,-4.919411495839594,0 -80.94639211676318,-4.91948016037751,0 -80.94670317756433,-4.918170948011831,0 -80.94669968294056,-4.918157199647064,0 -80.94663564777609,-4.918130150908155,0 -80.94658202445251,-4.918112690434149,0 -80.94651791362537,-4.91810309815336,0 -80.94644167944585,-4.918095856608835,0 -80.94636886666812,-4.918086806350852,0 -80.94630520215269,-4.91807649049864,0 -80.94624466299712,-4.91804482913377,0 -80.94623707823361,-4.91802447775121,0 -80.94624087790694,-4.917937014765776,0 -80.94625405013039,-4.917832638697368,0 -80.94625688034873,-4.917779636348378,0 -80.94591552579287,-4.917406241045081,0 -80.94586235109792,-4.917358209104037,0 -80.94580404357859,-4.917322658601854,0 -80.94562852096304,-4.917283390822327,0 -80.94558203839354,-4.917257519141969,0 -80.94555719890509,-4.917233186723649,0 -80.94556382186728,-4.917186063789753,0 -80.94562698320081,-4.916964289956236,0 -80.94567109529331,-4.916863715067259,0 -80.94570576273409,-4.91674975314524,0 -80.94572667507454,-4.916578536555594,0 -80.94575516898483,-4.9164694583566,0 -80.94580709591078,-4.916295892464202,0 -80.94584407109767,-4.916153077775787,0 -80.94588774337285,-4.915965763144701,0 -80.94593141433917,-4.915795543193127,0 -80.95424990393185,-4.914474763839301,0 -80.95467101577557,-4.914459866326757,0 -80.95463770856344,-4.915451898753243,0 -80.955454400417,-4.915789772850284,0 -80.95553158994741,-4.919652905113705,0 -80.95578428166871,-4.921482684848854,0 -80.95777030483529,-4.922034174129058,0 -80.9582470908983,-4.92006858420803,0 -80.95906185909912,-4.920358787663616,0 -80.95921495344945,-4.919828227836005,0 -80.95870281386064,-4.919643232822977,0 -80.9585717440485,-4.920001037971067,0 -80.9580283668152,-4.919815497982294,0 -80.95853417066462,-4.916284434071827,0 -80.96037330384549,-4.917960990853412,0 -80.95989378126998,-4.918417546707195,0 -80.95934528611588,-4.917994852661909,0 -80.95892830547713,-4.918577767237398,0 -80.96003139283616,-4.919475796662061,0 -80.9604071704557,-4.918867463281151,0 -80.96005427714225,-4.918532334063375,0 -80.96050680107423,-4.918082650699409,0 -80.96268798157865,-4.920070993885648,0 -80.96281753770647,-4.920193376653488,0 -80.96295140789594,-4.920311146760435,0 -80.96576990283123,-4.922880549853604,0 -80.96515426799581,-4.923431621400218,0 -80.96642061840562,-4.924525467922858,0 -80.96689504979429,-4.924833916960409,0 -80.96740707479077,-4.924372925607818,0 -80.96867424629173,-4.925528001224793,0 -80.96828255953483,-4.926048242097634,0 -80.96882526966048,-4.926371887905767,0 -80.96507748156998,-4.932049146623507,0 -80.97355768750171,-4.934992761064185,0 -80.97305525663353,-4.935355349850681,0
						</coordinates>
					</LinearRing>
				</outerBoundaryIs>
			</Polygon>
		</Placemark>
		<Placemark>
			<name>SI6_2</name>
			<visibility>0</visibility>
			<ExtendedData>
				<SchemaData schemaUrl="#S_BLOQUE_LA_HUACA">
					<SimpleData name="AREA_HA">85.4234</SimpleData>
					<SimpleData name="NOM_LOC"></SimpleData>
					<SimpleData name="NOM_PRE"></SimpleData>
					<SimpleData name="NOM_BLO">LA HUACA</SimpleData>
					<SimpleData name="CODCAT">SI6_2</SimpleData>
					<SimpleData name="USUARIO">ASOCIACION ALMIRANTE MIGUEL GRAU</SimpleData>
					<SimpleData name="AP_PAT_USU">ASOCIACION ALMIRANTE MIGUEL GRAU</SimpleData>
					<SimpleData name="AP_MAT_USU">ASOCIACION ALMIRANTE MIGUEL GRAU</SimpleData>
					<SimpleData name="NOM_USU">ASOCIACION ALMIRANTE MIGUEL GRAU</SimpleData>
					<SimpleData name="TIPODOC">RUC</SimpleData>
					<SimpleData name="NUM_DOC">20481234574</SimpleData>
					<SimpleData name="DESC_LIC">ANA-ALA CHIRA</SimpleData>
					<SimpleData name="PAR_AR_BR">60</SimpleData>
					<SimpleData name="RES_ADM">195-2009-ANA ALA CHIRA</SimpleData>
					<SimpleData name="TOMA">SI6</SimpleData>
				</SchemaData>
			</ExtendedData>
			<Polygon>
				<outerBoundaryIs>
					<LinearRing>
						<coordinates>
							-80.93681211759511,-4.926912482928394,0 -80.93348566280352,-4.926484547199901,0 -80.93216396724149,-4.925504137886188,0 -80.92921321902334,-4.925475838767679,0 -80.92921236869974,-4.922350369170148,0 -80.92920493476598,-4.922223398403967,0 -80.93181125135806,-4.922350626008438,0 -80.93373239217854,-4.923381507212438,0 -80.93372522813289,-4.920356632276189,0 -80.94048706292565,-4.916861822216482,0 -80.9420679501643,-4.916426928927482,0 -80.93882367604557,-4.927179662449182,0 -80.93681211759511,-4.926912482928394,0
						</coordinates>
					</LinearRing>
				</outerBoundaryIs>
			</Polygon>
		</Placemark>
	</Folder>
</Document>
</kml>
